FID,name,address,products,latitude,longitude
1,A La Mascota,"Peru   Col. Hidalgo, Juarez, Chihuahua",Servicios veterinarios para mascotas ,31.74496885,-106.4693119
2,Centro Medico Veterinario Oscar Flores,"Licenciado Oscar Flores Sanchez   Col. Cuesta, Juarez, Chihuahua",Servicios veterinarios para mascotas ,31.68092696,-106.4370565
3,Acuarama Imperial,"Ejercito Nacional 2701  Col. Del Marquez, Juarez, Chihuahua",Comercio al por mayor de medicamentos veterinarios y alimentos para animales,31.70744668,-106.4289794
4,Clinica Veterinaria Misiones,"Fuente De Verona   Col. Jardines Del Lago, Juarez, Chihuahua",Servicios veterinarios para mascotas ,31.6865227,-106.4169197
5,Agroindustrial Liderlac Valle De Juarez,"Tapachula 254  Col. Guadalupe Distrito Bravo, Juarez, Chihuahua",Comercio al por mayor de medicamentos veterinarios y alimentos para animales,31.60169276,-106.458682
6,Alvama Pets,"Paseo De Ruisenores Poniente   Col. Paseos Del Alba, Juarez, Chihuahua",Servicios veterinarios para mascotas ,31.63702237,-106.4168482
7,Animal Care,"Tlaxcala  939 Col. Cuautemoc, Juarez, Chihuahua",Servicios veterinarios para mascotas ,31.74419326,-106.4742586
8,Animal Clinica De Las Americas,"Jose Marti 2818  Col. Americas, Juarez, Chihuahua",Servicios veterinarios para mascotas ,31.74752006,-106.4565284
9,Black Can Veterinaria,"Puerto Dunquerque 1321  Col. Tierra Nueva 2, Juarez, Chihuahua",Servicios veterinarios para mascotas ,31.61458673,-106.3357993
10,Caballo & Jinete,"Ejido San Agustin   Col. El Papalote, Juarez, Chihuahua",Comercio al por mayor de medicamentos veterinarios y alimentos para animales,31.63033706,-106.3449783
11,Centro Antirrabico De Ciudad Juarez,"De Sevilla 4241  Col. Santa Rosa, Juarez, Chihuahua",Servicios veterinarios para mascotas prestados por el sector público,31.71740319,-106.4725601
12,Centro Medico Veterinario,"Hermanos Escobar 2379  Col. Hidalgo, Juarez, Chihuahua",Servicios veterinarios para mascotas ,31.74390505,-106.4621073
13,Centro Medico Veterinario,"Praderas De Los Alamos 9743  Col. Praderas De Los Alamos, Juarez, Chihuahua",Servicios veterinarios para mascotas ,31.62264345,-106.400927
14,Clinica De Esterilizacion,"Costa Rica 2135  Col. Melchor Ocampo, Juarez, Chihuahua",Servicios veterinarios para mascotas ,31.72072187,-106.4666938
15,Clinica De Veterinaria,"Zaragoza 8431  Col. Granjero, Juarez, Chihuahua",Servicios veterinarios para mascotas ,31.65029658,-106.4058954
16,Clinica Veterinaria,"Manuel Aispuro   Col. Infonavit Casas Grandes, Juarez, Chihuahua",Servicios veterinarios para mascotas ,31.7054588,-106.4414497
17,Clinica Veterinaria,"Adolfo Lopez Mateos 1762  Col. Paso Del Norte, Juarez, Chihuahua",Servicios veterinarios para mascotas ,31.71817328,-106.451031
18,Clinica Veterinaria Belisario,"Belisario Dominguez 0  Col. Corregidora, Juarez, Chihuahua",Servicios veterinarios para mascotas ,31.71999231,-106.4881301
19,Clinica Veterinaria Bichos,"Santiago Blancas 8339  Col. Revolucion, Juarez, Chihuahua",Servicios veterinarios para mascotas ,31.63729725,-106.4066959
20,Clinica Veterinaria El Campanario,"Paseo De Compositores 1514  Col. El Campanario Cuatro Siglos, Juarez, Chihuahua",Servicios veterinarios para mascotas ,31.61117818,-106.3941007
21,Clinica Veterinaria Rinconada,"Palacio De Mitla 909  Col. Bosques De Salvacar, Juarez, Chihuahua",Comercio al por menor de mascotas,31.62536568,-106.3814295
22,Clinica Veterinaria Salvarcar,"Porfirio Diaz 1005  Col. Salvacar, Juarez, Chihuahua",Servicios veterinarios para mascotas ,31.64639155,-106.3752104
23,Cocopets,"Ejercito Nacional 8806  Col. Vista Del Sol, Juarez, Chihuahua",Servicios veterinarios para mascotas ,31.68911186,-106.3985796
24,Comida De Mascotas,"Ninguno   Col. 16 De Septimbre, Juarez, Chihuahua",Comercio al por mayor de medicamentos veterinarios y alimentos para animales,31.72480992,-106.5346715
25,Compra Y Venta De Pastura,"Juarez-Casas Grandes 504  Col. K20, Juarez, Chihuahua",Comercio al por mayor de medicamentos veterinarios y alimentos para animales,31.6071121,-106.4541819
26,Consultorio Veterinario,"Lago Huron 5348  Col. Los Lagos, Juarez, Chihuahua",Servicios veterinarios para mascotas ,31.72491008,-106.4381804
27,Consultorio Veterinario,"Adolfo Lopez Mateos 1192 2 Col. Los Nogales, Juarez, Chihuahua",Servicios veterinarios para mascotas ,31.72551567,-106.4503505
28,Consultorio Veterinario,"Linares 1323  Col. Mariano Escobedo, Juarez, Chihuahua",Servicios veterinarios para mascotas ,31.72038875,-106.499777
29,Consultorio Veterinario,"Toronja Roja  6339 Col. Pie De Casa El Granjero, Juarez, Chihuahua",Servicios veterinarios para mascotas ,31.65992397,-106.3962212
30,Consultorio Veterinario Maruet,"Cocoyoc   Col. Santa Teresa, Juarez, Chihuahua",Servicios veterinarios para mascotas ,31.69599023,-106.4300246
31,Distribuidora Randai,"Hacienda Central   Col. Las Haciendas, Juarez, Chihuahua",Comercio al por mayor de medicamentos veterinarios y alimentos para animales,31.57759082,-106.3962369
32,Distribuidora Veterinaria La Vaquita Sa De Cv,"Del Portico 2038  Col. Satelite, Juarez, Chihuahua",Comercio al por mayor de medicamentos veterinarios y alimentos para animales,31.6898465,-106.3804188
33,Distribuidora Veterinaria Romar,"Profesor Alejandro Aguirre Laredo 5206  Col. La Fuente, Juarez, Chihuahua",Comercio al por mayor de medicamentos veterinarios y alimentos para animales,31.71524174,-106.4429976
34,Doctor Pet,"Ninos Heroes 2429  Col. Ex Hipodromo, Juarez, Chihuahua",Servicios veterinarios para mascotas ,31.72818056,-106.4625982
35,Doctor Pet,"De La Raza 708 1 Col. Los Nogales, Juarez, Chihuahua",Servicios veterinarios para mascotas ,31.73116361,-106.4496351
36,Doctor Pet,"Pina 6754  Col. Granjero, Juarez, Chihuahua",Servicios veterinarios para mascotas ,31.65518985,-106.4012174
37,Dogito Veterinaria,"Juarez-Casas Grandes 0 4 Col. Kilometro 20, Juarez, Chihuahua",Servicios veterinarios para mascotas ,31.60712566,-106.4527028
38,Dogtor,"Manuel J. Clouthier (Jilotepec) 10110  Col. Infonavit Juarez Nuevo, Juarez, Chihuahua",Servicios veterinarios para mascotas ,31.66027532,-106.3912539
39,Dogycat Clinica Veterinaria,"Francisco Villarreal Torres 0  Col. Juarez, Juarez, Chihuahua",Servicios veterinarios para mascotas ,31.68419984,-106.3874816
40,Dulceria Pinatas Sin Nombre,"16 De Septiembre   Col. Arroyo Colorado, Juarez, Chihuahua",Comercio al por mayor de medicamentos veterinarios y alimentos para animales,31.74324862,-106.5021402
41,Estetica Canina Y Farmacia Veterinaria,"Valle De Juarez   Col. Frontera, Juarez, Chihuahua",Otros servicios personales,31.73739483,-106.4154369
42,Estetica Canina Y Veterinaria Dog Zone,"Manuel J. Clouthier (Jilotepec) 10267  Col. Infonavit Ampl Aeropuerto V Etapa, Juarez, Chihuahua",Otros servicios personales,31.65892227,-106.3871614
43,Estetica Veterinaria Patitas,"Camino Ortiz Rubio 5151  Col. Jardines De San Carlos, Juarez, Chihuahua",Servicios veterinarios para mascotas ,31.66604427,-106.3817644
44,Family Pet,"Valle Del Sol 1961  Col. Ejido Salvarcar, Juarez, Chihuahua",Servicios veterinarios para mascotas ,31.69410208,-106.3738753
45,Family Pet,"De Las Torres   Col. Parque Industrial Henequen, Juarez, Chihuahua",Servicios veterinarios para mascotas ,31.64816741,-106.3884004
46,Farmacia Veterinaria Bully,"16 De Septiembre   Col. Insurgentes, Juarez, Chihuahua",Servicios veterinarios para mascotas ,31.7450476,-106.5086614
47,Farmacia Veterinaria Dr De Leon,"Montes Urales 6621  Col. Lomas Del Rey, Juarez, Chihuahua",Comercio al por menor de mascotas,31.67085881,-106.4296507
48,Farmacia Veterinaria El Rancho,"Rancho Anapra 10520  Col. Puerto Anapra, Juarez, Chihuahua",Comercio al por mayor de medicamentos veterinarios y alimentos para animales,31.77317365,-106.5540919
49,Farmapolis,"Manuel Gomez Morin 1536  Col. Satelite, Juarez, Chihuahua",Comercio al por mayor de medicamentos veterinarios y alimentos para animales,31.67957176,-106.3712619
50,Forraje El Grano De Oro,"Sauzal 813  Col. El Sauzal, Juarez, Chihuahua",Comercio al por mayor de medicamentos veterinarios y alimentos para animales,31.60845002,-106.3203369
51,Granos Y Pasturas El Alazan,"Gabriel Gavira 433  Col. Km 20, Juarez, Chihuahua",Comercio al por mayor de medicamentos veterinarios y alimentos para animales,31.60728791,-106.4548862
52,Granos Y Semillas,"Juarez-Casas Grandes 481 2 Col. Km20, Juarez, Chihuahua",Comercio al por mayor de medicamentos veterinarios y alimentos para animales,31.60715126,-106.4555749
53,Granos Y Semillas Del Valle,"Campeche 425  Col. Salvacar, Juarez, Chihuahua",Comercio al por mayor de medicamentos veterinarios y alimentos para animales,31.64711398,-106.3630408
54,Happy Puppy,"Camino A Ortiz Rubio 2115  Col. Cordero, Juarez, Chihuahua",Servicios veterinarios para mascotas ,31.68936583,-106.3755365
55,Healthy Pets,"Benjamin Franklin 3220  Col. Zona Pronaf, Juarez, Chihuahua",Servicios veterinarios para mascotas ,31.74239829,-106.4518786
56,Hospican Veterinaria,"Montebello 2111  Col. Misiones, Juarez, Chihuahua",Servicios veterinarios para mascotas ,31.70729291,-106.4099115
57,Hospital Veterinaria,"Adolfo Lopez Mateos 1662  Col. Cordoba Americas, Juarez, Chihuahua",Servicios veterinarios para mascotas ,31.75211891,-106.448184
58,Hospital Veterinario,"De Los Insurgentes 4032  Col. Los Nogales, Juarez, Chihuahua",Servicios veterinarios para mascotas ,31.73175134,-106.4497264
59,Iig Intrnational,"Juarez-Porvenir 1004  Col. Zaragozita, Juarez, Chihuahua",Comercio al por mayor de medicamentos veterinarios y alimentos para animales,31.63862997,-106.3380981
60,Inagro,"Vicente Guerrero 8048  Col. Los Parques, Juarez, Chihuahua",Comercio al por mayor de medicamentos veterinarios y alimentos para animales,31.73234093,-106.4067927
61,Jj Hermanos Acosta,"Primera 305  Col. Salvacar, Juarez, Chihuahua",Comercio al por mayor de medicamentos veterinarios y alimentos para animales,31.65278219,-106.3637011
62,La Providencia,"Puerto Palma   Col. Tierra Nueva Ii (Francisco Villarreal), Juarez, Chihuahua",Comercio al por mayor de medicamentos veterinarios y alimentos para animales,31.61138417,-106.3332082
63,Las Misiones,"Paseo De Compositores 1328  Col. Las Misiones, Juarez, Chihuahua",Servicios veterinarios para mascotas ,31.61081178,-106.3916551
64,Del Sol Hospital Veterinario,"Tecnologico 110  Col. Plaza Del Sol, Juarez, Chihuahua",Comercio al por mayor de medicamentos veterinarios y alimentos para animales,31.69986186,-106.4247272
65,Mara Distribuciones,"Aeronautica 6910 13 Col. Jardines Del Aeropuerto, Juarez, Chihuahua",Comercio al por mayor de medicamentos veterinarios y alimentos para animales,31.77675235,-106.5668809
66,Mascotas Goo,"Rodesia 7343  Col. Infonavit Tecnologico, Juarez, Chihuahua",Servicios veterinarios para mascotas ,31.65331971,-106.4219504
67,Medican Care Hospital Veterinario,"Pitahaya   Col. Erendira, Juarez, Chihuahua",Otros servicios personales,31.67039815,-106.4092951
68,Megavet,"Senecú 2038  Col. Satelite, Juarez, Chihuahua",Comercio al por mayor de medicamentos veterinarios y alimentos para animales,31.71991291,-106.406583
69,Mini Sur Veterinaria,"Lago De Corinto 199  Col. Inf Frontera, Juarez, Chihuahua",Servicios veterinarios para mascotas ,31.74004526,-106.4189792
70,Mini Zoo,"Valle Del Sol 2050 7 Col. Plaza Sendero, Juarez, Chihuahua",Servicios veterinarios para mascotas ,31.69520427,-106.3808714
71,Mini Zoo,"De Las Torres 2751  Col. Hcienda De Las Torres, Juarez, Chihuahua",Servicios veterinarios para mascotas ,31.60694745,-106.3978464
72,Minizoo,"Santiago Troncoso 1328  Col. Parque Industrial Pimsa Intermex, Juarez, Chihuahua",Servicios veterinarios para mascotas ,31.63453812,-106.3848618
73,Montesol Animal Center,"Miguel De La Madrid Hurtado 7096  Col. 41, Juarez, Chihuahua",Servicios veterinarios para mascotas ,31.6475011,-106.4027047
74,My Vet,"Del Charro 709  Col. Raul Garcia, Juarez, Chihuahua",Servicios veterinarios para mascotas ,31.72929378,-106.4317429
75,Padisa,"Fray Pedro De Gante 7073  Col. San Lorenzo, Juarez, Chihuahua",Comercio al por mayor de medicamentos veterinarios y alimentos para animales,31.73629251,-106.4264194
76,Padisa Juarez,"Pedro De Gante 1000  Col. San Lorenzo, Juarez, Chihuahua",Comercio al por mayor de medicamentos veterinarios y alimentos para animales,31.73628737,-106.4264742
77,Pastura Norma,"Centeno 7915  Col. Granjero, Juarez, Chihuahua",Comercio al por mayor de medicamentos veterinarios y alimentos para animales,31.66509668,-106.4103761
78,Pasturas,"Coahuila 331  Col. Lomas De Poleo, Juarez, Chihuahua",Comercio al por mayor de medicamentos veterinarios y alimentos para animales,31.77440518,-106.5704488
79,Pasturas Chapito,"Juan Balderas   Col. Fronteriza Alta, Juarez, Chihuahua",Comercio al por mayor de medicamentos veterinarios y alimentos para animales,31.73162526,-106.5284802
80,Pasturas Del Norte,"De Los Aztecas 3653  Col. Granjas De Chapultepec, Juarez, Chihuahua",Comercio al por mayor de medicamentos veterinarios y alimentos para animales,31.66968643,-106.4743578
81,Pasturas El Chapito,"Juan Balderas 5435  Col. Fronteriza, Juarez, Chihuahua",Comercio al por mayor de medicamentos veterinarios y alimentos para animales,31.73154743,-106.5280147
82,Pasturas El Mezquital,"Mezquital   Col. El Mezquital, Juarez, Chihuahua",Comercio al por mayor de medicamentos veterinarios y alimentos para animales,31.59011297,-106.3992143
83,Pasturas El Ponny,"Mesa Central   Col. Manuel J Clouthier, Juarez, Chihuahua",Comercio al por mayor de medicamentos veterinarios y alimentos para animales,31.60244555,-106.3630777
84,Pasturas El Potro,"Sinaloa 3112  Col. Fronteriza Alta, Juarez, Chihuahua",Comercio al por mayor de medicamentos veterinarios y alimentos para animales,31.73009688,-106.5316544
85,Pasturas El Richi,"Division Del Norte   Col. Mariano Escobedo, Juarez, Chihuahua",Comercio al por mayor de medicamentos veterinarios y alimentos para animales,31.72311303,-106.4994792
86,Pasturas El Topo,"Juarez-Casas Grandes 276  Col. Granjas Polo Gamboa, Juarez, Chihuahua",Comercio al por mayor de medicamentos veterinarios y alimentos para animales,31.60751192,-106.4654377
87,Pasturas La Bodega,"Gabriel Gavira 475  Col. Km20, Juarez, Chihuahua",Comercio al por mayor de medicamentos veterinarios y alimentos para animales,31.60713845,-106.4551195
88,Pasturas Paola,"Pavo Real   Col. Division Del Norte, Juarez, Chihuahua",Comercio al por mayor de medicamentos veterinarios y alimentos para animales,31.66942946,-106.4479036
89,Pasturas Varela,"Vistas De Pena Fiel 1356  Col. Vista De Los Ojitos, Juarez, Chihuahua",Comercio al por mayor de medicamentos veterinarios y alimentos para animales,31.68302359,-106.4960293
90,Pastureria Beky,"Marte 1787  Col. Satelite, Juarez, Chihuahua",Comercio al por mayor de medicamentos veterinarios y alimentos para animales,31.68042127,-106.3752008
91,Patitas Rotas,"Juan Gabriel   Col. Safari, Juarez, Chihuahua",Servicios veterinarios para mascotas ,31.62911896,-106.4614599
92,Pet Home Veterinaria,"Waterfill 6  Col. Rincon De Waterfill, Juarez, Chihuahua",Servicios veterinarios para mascotas ,31.66794051,-106.3505903
93,Pet Love,"Francisco Villa 547  Col. Manuel Valdez Iii, Juarez, Chihuahua",Servicios veterinarios para mascotas ,31.63045227,-106.3608013
94,Pet Zone,"Belisario Dominguez 1679  Col. Chavena, Juarez, Chihuahua",Servicios veterinarios para mascotas ,31.72692509,-106.4854228
95,Pets Anatomy,"Ejercito Nacional 9331  Col. Bosques De Santa Fe, Juarez, Chihuahua",Servicios veterinarios para mascotas ,31.68491163,-106.3966481
96,Pets Place Clinic,"Pradera De Temoris 0  Col. Praderas De La Sierra I, Juarez, Chihuahua",Servicios veterinarios para mascotas ,31.62182805,-106.405657
97,Pets World,"Bosques De Jacarandas 2926 4 Col. Jardines Delbosque, Juarez, Chihuahua",Servicios veterinarios para mascotas ,31.70177108,-106.4136125
98,Pixie,"Ejercito Nacional 6151 8 Col. El Marquez, Juarez, Chihuahua",Servicios veterinarios para mascotas ,31.7087741,-106.4319593
99,Rancho Agricola,"Hermenegildo Luna 0  Col. Aguilas De Zaragoza, Juarez, Chihuahua",Comercio al por mayor de medicamentos veterinarios y alimentos para animales,31.6247745,-106.3329499
100,Reginas Pet Spa & Grooming,"Jacinto Benavente 2545  Col. Infonavit Casas Grandes, Juarez, Chihuahua",Servicios veterinarios para mascotas ,31.70537368,-106.4311064
101,Reginas Pet Spa & Grooming,"Jacinto Benavente 2545  Col. Infonavit Casas Grandes, Juarez, Chihuahua",Servicios veterinarios para mascotas ,31.70537368,-106.4311064
102,Servicios Medicos Veterinarios,"Plutarco Elias Calles 664  Col. Villas Adlin, Juarez, Chihuahua",Servicios veterinarios para mascotas ,31.74158927,-106.440888
103,Servicios Para Su Mascota,"Fernando Montes De Oca 3116  Col. Partido Escobedo, Juarez, Chihuahua",Servicios veterinarios para mascotas ,31.73533369,-106.4558067
104,Servicios Veterinarios,"Ayuntamiento   Col. Industrial, Juarez, Chihuahua",Servicios veterinarios para mascotas ,31.71247117,-106.4781762
105,Servicios Veterinarios Integrales Gopherus,"Heroes Del Carrizal 3708  Col. Anahuac, Juarez, Chihuahua",Servicios veterinarios para mascotas ,31.71152646,-106.4849342
106,Servicios Veterinarios Para Mascotas Prestados Por El Sector Privado,"Custodio De La Republica 1015  Col. San Francisco, Juarez, Chihuahua",Servicios veterinarios para mascotas ,31.60667563,-106.362572
107,Shower Pet,"Manuel Gomez Morin 1325  Col. Juarez, Juarez, Chihuahua",Servicios veterinarios para mascotas ,31.67511132,-106.3688197
108,Star Pets,"De Los Insurgentes 5284  Col. Segunda Burocrata, Juarez, Chihuahua",Servicios veterinarios para mascotas ,31.73107091,-106.439446
109,Tote Zoo,"Manuel J. Clouthier (Jilotepec) 450  Col. Maria Isabel, Juarez, Chihuahua",Servicios veterinarios para mascotas ,31.65952808,-106.361531
110,Unidad Medica Veterinaria,"De La Raza   Col. Santa Celilia, Juarez, Chihuahua",Comercio al por menor de mascotas,31.72935273,-106.4430834
111,Venta De Alimento Para Animales Forrajera El General,"Ingeniero Bernardo Norzagaray 6919 4 Col. Franja Del Rio (Ladrilleros Mexicanos), Juarez, Chihuahua",Comercio al por mayor de medicamentos veterinarios y alimentos para animales,31.76455274,-106.5141504
112,Venta De Alimentos Don Juan,"Puerto Huelva 1541  Col. Tierra Nueva, Juarez, Chihuahua",Comercio al por mayor de medicamentos veterinarios y alimentos para animales,31.61227676,-106.341556
113,Verterinaria General,"De La Raza   Col. Silvias, Juarez, Chihuahua",Servicios veterinarios para mascotas ,31.73377224,-106.4591039
114,Vet Angel Veterinaria,"De La Raza 6362  Col. Partido La Fuente, Juarez, Chihuahua",Servicios veterinarios para mascotas ,31.72503212,-106.4274788
115,Veterianaria Garcia,"De Los Aztecas 7832  Col. Revolucion Mexicana, Juarez, Chihuahua",Servicios veterinarios para mascotas ,31.6761469,-106.476224
116,Veterianaria Litle Peats,"N. Municipio Libre 1638  Col. Melchor Ocampo, Juarez, Chihuahua",Servicios veterinarios para mascotas ,31.71969382,-106.458138
117,Veterianaria Vicvet,"Oasis De La Revolucion   Col. Oasis Revolucion, Juarez, Chihuahua",Servicios veterinarios para mascotas ,31.65824489,-106.4560177
118,Veterilandia,"Custodio De La Republica 1015  Col. Fray Garcia De San Francisco32, Juarez, Chihuahua",Servicios veterinarios para mascotas ,31.6064862,-106.3625171
119,Veterinari -Clinica Ecopet.,"Manuel J. Clouthier (Jilotepec) 7281  Col. Del Real, Juarez, Chihuahua",Servicios veterinarios para mascotas ,31.6689729,-106.4180169
120,Veterinaria,"Tecnologico  3 Col. Del Marquez, Juarez, Chihuahua",Servicios veterinarios para mascotas ,31.7001705,-106.4247238
121,Veterinaria,"Pipila 1289 1 Col. Barrio Alto, Juarez, Chihuahua",Servicios veterinarios para mascotas ,31.73886378,-106.4921404
122,Veterinaria,"Plutarco Elias Calles 344  Col. 2A Burocrata, Juarez, Chihuahua",Servicios veterinarios para mascotas ,31.73394903,-106.4405181
123,Veterinaria,"Rafael Velarde 2396  Col. Monterrey, Juarez, Chihuahua",Servicios veterinarios para mascotas ,31.72361445,-106.4907357
124,Veterinaria,"Obaldia 1571  Col. Heroes De Mexico, Juarez, Chihuahua",Servicios veterinarios para mascotas ,31.61661381,-106.3477718
125,Veterinaria  Estetica Orion,"Valentin Fuentes 2069  Col. Fracc El Portal, Juarez, Chihuahua",Servicios veterinarios para mascotas ,31.71224333,-106.4341532
126,Veterinaria  Zak,"Tecnologico 5298 2 Col. Emiliano Zapata, Juarez, Chihuahua",Servicios veterinarios para mascotas ,31.7359085,-106.4247069
127,Veterinaria 101 Mascotas Y Algo Mas,"Quinta 1574  Col. Torres Del Pri, Juarez, Chihuahua",Servicios veterinarios para mascotas ,31.6353759,-106.388741
128,Veterinaria 4 Patas La Original,"Santiago Blancas 7804  Col. Roma, Juarez, Chihuahua",Servicios veterinarios para mascotas ,31.63593668,-106.3973281
129,Veterinaria Aeropuerto,"Manuel J. Clouthier (Jilotepec) 7505  Col. Ampliacion Aeropuerto, Juarez, Chihuahua",Servicios veterinarios para mascotas ,31.6686658,-106.415589
130,Veterinaria Albeytares,"Ejido San Valentin 1114  Col. Morelos 2, Juarez, Chihuahua",Servicios veterinarios para mascotas ,31.63894904,-106.3728077
131,Veterinaria Alfs,"Cloro 1753  Col. Altavista, Juarez, Chihuahua",Comercio al por menor de mascotas,31.75446133,-106.5009547
132,Veterinaria Alve,"Cantera 110  Col. Morelos, Juarez, Chihuahua",Servicios veterinarios para mascotas ,31.67923374,-106.4774027
133,Veterinaria Alyjo,"Napoles   Col. Praderas De Los Oasis Ii, Juarez, Chihuahua",Servicios veterinarios para mascotas ,31.65728053,-106.463106
134,Veterinaria Angeles,"Margarito Herrera 7402  Col. Fernando Baeza M, Juarez, Chihuahua",Servicios veterinarios para mascotas ,31.64255122,-106.3926843
135,Veterinaria Animal Care,"De Los Insurgentes 1918  Col. Ex Hipodromo, Juarez, Chihuahua",Servicios veterinarios para mascotas ,31.73292368,-106.4674475
136,Veterinaria Anivis,"Iztaccihuatl 5512  Col. Erendira, Juarez, Chihuahua",Comercio al por menor de mascotas,31.67346559,-106.4163013
137,Veterinaria Arnal Reveles,"Puerto De Palos 1388 3 Col. Patria, Juarez, Chihuahua",Comercio al por mayor de medicamentos veterinarios y alimentos para animales,31.62205998,-106.3436049
138,Veterinaria Bachilleres,"Valentin Fuentes   Col. San Miguel De Allende, Juarez, Chihuahua",Servicios veterinarios para mascotas ,31.71919912,-106.4318502
139,Veterinaria Batista,"De Los Aztecas 6909  Col. Libertad, Juarez, Chihuahua",Servicios veterinarios para mascotas ,31.68531966,-106.4790124
140,Veterinaria Campanario,"Paseo De Compositores 1514  Col. El Campanario, Juarez, Chihuahua",Servicios veterinarios para mascotas ,31.61127031,-106.3947606
141,Veterinaria Casas Grandes,"Licenciado Oscar Flores Sanchez   Col. Kilometro 5, Juarez, Chihuahua",Servicios veterinarios para mascotas ,31.69968484,-106.44328
142,Veterinaria Castaneda,"Ramon Rayon   Col. Rinconada De Las Torres Iii, Juarez, Chihuahua",Servicios veterinarios para mascotas ,31.61847467,-106.3773362
143,Veterinaria Catalan,"Manuel Gomez Morin   Col. Del Crucero, Juarez, Chihuahua",Servicios veterinarios para mascotas ,31.72402449,-106.4240673
144,Veterinaria Cats And Dogs,"Manuel Gomez Morin 1525  Col. Fidel Avila, Juarez, Chihuahua",Servicios veterinarios para mascotas ,31.6803403,-106.3711613
145,Veterinaria Central,"Aeronautica  7 Col. Jardines Del Aeropuerto, Juarez, Chihuahua",Servicios veterinarios para mascotas ,31.62011369,-106.4402935
146,Veterinaria Cerevet,"Mesa Central 2915  Col. Profesora Simona Barbara, Juarez, Chihuahua",Servicios veterinarios para mascotas ,31.5940779,-106.3722267
147,Veterinaria Chanoc,"Juarez-Porvenir   Col. Zaragoza, Juarez, Chihuahua",Servicios veterinarios para mascotas ,31.6479794,-106.3553231
148,Veterinaria Charly,"16 De Septiembre 681  Col. Monumento, Juarez, Chihuahua",Servicios veterinarios para mascotas ,31.73892943,-106.4778894
149,Veterinaria Consu Vet,"Juarez-Porvenir 880  Col. Zaragozita, Juarez, Chihuahua",Servicios veterinarios para mascotas ,31.6388293,-106.3384258
150,Veterinaria D Bulls,"Morence 243 4 Col. Praderas Del Sur, Juarez, Chihuahua",Servicios veterinarios para mascotas ,31.62130807,-106.3724179
151,Veterinaria Del Angel,"Antiguo Camino A San Jose   Col. Partido Iglesias, Juarez, Chihuahua",Servicios veterinarios para mascotas ,31.70655458,-106.4242427
152,Veterinaria Del Desierto,"Juarez-Casas Grandes   Col. Km20, Juarez, Chihuahua",Servicios veterinarios para mascotas ,31.60723502,-106.4585564
153,Veterinaria Del Norte,"Zaragoza 1009  Col. 1Ro De Mayo, Juarez, Chihuahua",Consultorios de medicina general del sector privado,31.66047051,-106.4507543
154,Veterinaria Del Poniente,"Chiapas   Col. Fronteriza, Juarez, Chihuahua",Servicios veterinarios para mascotas ,31.73450758,-106.529187
155,Veterinaria Division Del Norte,"Division Del Norte 2808  Col. Emiliano Zapata, Juarez, Chihuahua",Servicios veterinarios para mascotas ,31.72494471,-106.5056347
156,Veterinaria Doctor Portillo,"Eduardo Estrada Garcia 339  Col. Horizontez Del Sur, Juarez, Chihuahua",Servicios veterinarios para mascotas ,31.60918267,-106.3790008
157,Veterinaria Dog T,"Mesa Central 2754  Col. Olivia Espinoza De Bermudez, Juarez, Chihuahua",Comercio al por menor de mascotas,31.59728146,-106.3683846
158,Veterinaria Dog T,"Desierto De Argentina 1527 24 Col. Carlos Chavira Becerra, Juarez, Chihuahua",Servicios veterinarios para mascotas ,31.59583939,-106.358988
159,Veterinaria Doguito,"Perimetral Carlos Amaya 2418  Col. Azteca, Juarez, Chihuahua",Servicios veterinarios para mascotas ,31.6957266,-106.4704486
160,Veterinaria Dos Amigos,"Barranco Azul 1211  Col. Toribio Ortega, Juarez, Chihuahua",Servicios veterinarios para mascotas ,31.64494686,-106.4586742
161,Veterinaria Dos Amigos,"Barranco Azul   Col. Colonia Toribio Ortega, Juarez, Chihuahua",Servicios veterinarios para mascotas ,31.64505759,-106.4588761
162,Veterinaria Dr. De Leon,"Montes Urales 6621  Col. Lomas Del Rey, Juarez, Chihuahua",Servicios veterinarios para mascotas ,31.67085319,-106.4295186
163,Veterinaria Dr. Miguel Guevara,"16 De Septiembre 0  Col. Partido Romero, Juarez, Chihuahua",Servicios veterinarios para mascotas ,31.73817487,-106.467693
164,Veterinaria Edli Centeno,"Centeno 7509  Col. Granjero, Juarez, Chihuahua",Servicios veterinarios para mascotas ,31.66510549,-106.4161498
165,Veterinaria Edli,"Trigo 7511  Col. Granjero, Juarez, Chihuahua",Servicios veterinarios para mascotas ,31.665891,-106.4148605
166,Veterinaria El Potro,"Tecnologico 0  Col. Granjas Polo Gamboa, Juarez, Chihuahua",Comercio al por menor de mascotas,31.59315581,-106.4584163
167,Veterinaria El Rancho,"Morera 2183  Col. Francisco Villa (Norponiente), Juarez, Chihuahua",Servicios veterinarios para mascotas ,31.76086789,-106.5114179
168,Veterinaria Estetica Canina Expets Juarez,"Justo Sierra   Col. Manuel Valdez Iii, Juarez, Chihuahua",Servicios veterinarios para mascotas ,31.62817351,-106.3575713
169,Veterinaria Family Pet,"Bosques De Jacarandas   Col. Real De San Jose, Juarez, Chihuahua",Servicios veterinarios para mascotas ,31.70355535,-106.4134665
170,Veterinaria Fernandez,"De Las Americas 1128  Col. Zona Pronaf, Juarez, Chihuahua",Servicios veterinarios para mascotas ,31.74680121,-106.4555954
171,Veterinaria Fido,"Valle Del Sol 1951 7 Col. Ejido Salvarcar, Juarez, Chihuahua",Servicios veterinarios para mascotas ,31.69378451,-106.3720759
172,Veterinaria Foxy,"Hidrogeno 1274  Col. Altavista, Juarez, Chihuahua",Servicios veterinarios para mascotas ,31.75223076,-106.5047496
173,Veterinaria Galerias,"Pedro Rosales De Leon 1770  Col. Galerias Tec, Juarez, Chihuahua",Servicios veterinarios para mascotas ,31.71598562,-106.4238213
174,Veterinaria Galgodromo,"Vicente Guerrero 8515  Col. Las Quintas, Juarez, Chihuahua",Servicios veterinarios para mascotas ,31.73213802,-106.4020406
175,Veterinaria Garza,"Perimetral Carlos Amaya 389  Col. Constitucion, Juarez, Chihuahua",Servicios veterinarios para mascotas ,31.70483765,-106.4577133
176,Veterinaria Haciendas,"Hacienda Del Retiro 3328  Col. Hacienda De Las Torres Universidad, Juarez, Chihuahua",Servicios veterinarios para mascotas ,31.59255637,-106.399715
177,Veterinaria Happy Dog,"Porfirio Diaz 10149  Col. Las Dunas (Iviech), Juarez, Chihuahua",Servicios veterinarios para mascotas ,31.64985576,-106.3901809
178,Veterinaria Herford,"16 De Septiembre 1381  Col. Partido Romero, Juarez, Chihuahua",Comercio al por mayor de medicamentos veterinarios y alimentos para animales,31.73860616,-106.4717899
179,Veterinaria Hermosas Huellitas,"Nogal 306  Col. Insurgentes, Juarez, Chihuahua",Servicios veterinarios para mascotas ,31.74700005,-106.5207146
180,Veterinaria Independencia,"Presa Centenario 546  Col. Independencia I, Juarez, Chihuahua",Servicios veterinarios para mascotas ,31.69412956,-106.4524371
181,Veterinaria Jilotepec,"Manuel J. Clouthier (Jilotepec) 8319  Col. Ampliacion Aeropuerto, Juarez, Chihuahua",Servicios veterinarios para mascotas ,31.66763638,-106.4064843
182,Veterinaria Juarez Nuevo,"A. Alvarez Y A.  29 Col. Infonavit Juarez Nuevo, Juarez, Chihuahua",Servicios veterinarios para mascotas ,31.65126767,-106.3954162
183,Veterinaria Kapi,"Centeno 6272  Col. Colinas De Juarez, Juarez, Chihuahua",Servicios veterinarios para mascotas ,31.6660999,-106.4371097
184,Veterinaria La Cuesta,"Tecnologico 5311  Col. Jarudo, Juarez, Chihuahua",Comercio al por menor de mascotas,31.67819036,-106.4247916
185,Veterinaria Lara,"Pedro Rosales De Leon 5446  Col. San Angel, Juarez, Chihuahua",Servicios veterinarios para mascotas ,31.72003167,-106.4377168
186,Veterinaria Las Torres,"De Las Torres 7618  Col. Fernando Baeza M, Juarez, Chihuahua",Servicios veterinarios para mascotas ,31.63894072,-106.3910358
187,Veterinaria Libramiento,"Henequen 1158  Col. Heroes De Mexico, Juarez, Chihuahua",Servicios veterinarios para mascotas ,31.61828502,-106.3484137
188,Veterinaria Lobo,"Septima 1514  Col. Torres Del Pri, Juarez, Chihuahua",Servicios veterinarios para mascotas ,31.63667835,-106.3873921
189,Veterinaria Lopez Mateos,"Montemayor 2022 4 Col. Arciniega, Juarez, Chihuahua",Servicios veterinarios para mascotas ,31.7148509,-106.4512026
190,Veterinaria Los Parques,"Vicente Guerrero 7736  Col. Los Parques, Juarez, Chihuahua",Servicios veterinarios para mascotas ,31.73270336,-106.4116486
191,Veterinaria Margarita,"Manuel Gomez Morin 1520 6 Col. Satelite, Juarez, Chihuahua",Servicios veterinarios para mascotas ,31.67275548,-106.3681768
192,Veterinaria Mau,"Nueva Zelanda 7831  Col. Oasis, Juarez, Chihuahua",Servicios veterinarios para mascotas ,31.65556352,-106.4155299
193,Veterinaria Mezquital,"Mezquital 3679  Col. El Mezquital, Juarez, Chihuahua",Servicios veterinarios para mascotas ,31.58741833,-106.4015813
194,Veterinaria Mis 3 Bulls,"Duraznos 194  Col. Zaragoza, Juarez, Chihuahua",Servicios veterinarios para mascotas ,31.63297823,-106.3604363
195,Veterinaria Moloso,"A 11425  Col. Cordero, Juarez, Chihuahua",Servicios veterinarios para mascotas ,31.69031125,-106.3796399
196,Veterinaria Monis,"Costa De Marfil   Col. Parque Industrial Zaragoza, Juarez, Chihuahua",Servicios veterinarios para mascotas ,31.65335787,-106.4272958
197,Veterinaria Mr Dog,"De La Raza 5385 16 Col. Mascarenas, Juarez, Chihuahua",Otros servicios personales,31.728027,-106.4375699
198,Veterinaria Oasis,"Del Granjero 7004  Col. Oasis, Juarez, Chihuahua",Servicios veterinarios para mascotas ,31.65909729,-106.424072
199,Veterinaria Oasis,"General Santos Ortiz 1439  Col. Oasis Revolucion, Juarez, Chihuahua",Servicios veterinarios para mascotas ,31.66019028,-106.4543638
200,Veterinaria Ohana,"Plutarco Elias Calles 2690  Col. Division Del  Norte, Juarez, Chihuahua",Servicios veterinarios para mascotas ,31.7063548,-106.4470136
201,Veterinaria Parajes,"Desierto Magreb 1509 8 Col. Paraje De Oriente, Juarez, Chihuahua",Servicios veterinarios para mascotas ,31.60121988,-106.3558471
202,Veterinaria Patas Descalzas,"Ponciano Arriaga 2421  Col. Revolucion Mexicana, Juarez, Chihuahua",Servicios veterinarios para mascotas ,31.67716211,-106.4624151
203,Veterinaria Paty,"Azucenas 3070  Col. Zacatecas, Juarez, Chihuahua",Servicios veterinarios para mascotas ,31.74798359,-106.4972483
204,Veterinaria Peques,"Tecnologico   Col. Rincon Del Valle, Juarez, Chihuahua",Servicios veterinarios para mascotas ,31.6934171,-106.4247289
205,Veterinaria Perros Inc,"Vicente Guerrero 2325  Col. Partido Romero, Juarez, Chihuahua",Servicios veterinarios para mascotas ,31.73491315,-106.4629897
206,Veterinaria Perros Y Gatos,"Casas Grandes 11516 1 Col. Jardines De Satelite, Juarez, Chihuahua",Servicios veterinarios para mascotas ,31.67892476,-106.3809244
207,Veterinaria Pet Inc,"Perimetral Carlos Amaya 3013  Col. Azteca, Juarez, Chihuahua",Servicios veterinarios para mascotas ,31.69591587,-106.4811851
208,Veterinaria Petz,"Independencia 2994  Col. El Mezquital, Juarez, Chihuahua",Servicios veterinarios para mascotas ,31.59718809,-106.3838421
209,Veterinaria Pocas Pulgas,"Tecnologico 5671  Col. La Cuesta Ii, Juarez, Chihuahua",Servicios veterinarios para mascotas ,31.67110292,-106.4256975
210,Veterinaria Pradera,"Rancho El 24 3020  Col. Pradera Dorada, Juarez, Chihuahua",Servicios veterinarios para mascotas ,31.70071534,-106.4226968
211,Veterinaria Puppy,"Oaxaca 960  Col. Morelos 1, Juarez, Chihuahua",Servicios veterinarios para mascotas ,31.6420672,-106.3762492
212,Veterinaria Ramirez,"Manuel Gomez Morin   Col. Adicion Campestre, Juarez, Chihuahua",Servicios veterinarios para mascotas ,31.71423659,-106.4117097
213,Veterinaria Recovey,"Ninguno   Col. Carlos Castillo Peraza, Juarez, Chihuahua",Servicios veterinarios para mascotas ,31.58780491,-106.3701548
214,Veterinaria Reforma,"Reforma 3110 5 Col. Melchor Ocampo, Juarez, Chihuahua",Servicios veterinarios para mascotas ,31.71898131,-106.4630296
215,Veterinaria Roma,"Nabogame 8110  Col. Roma, Juarez, Chihuahua",Servicios veterinarios para mascotas ,31.63160496,-106.3989086
216,Veterinaria Romu,"Las Cumbres 970  Col. El Fortin, Juarez, Chihuahua",Servicios veterinarios para mascotas ,31.63702792,-106.3682138
217,Veterinaria San Fernando,"Simona Barba 6415  Col. Partido La Fuente, Juarez, Chihuahua",Servicios veterinarios para mascotas ,31.72095227,-106.4269966
218,Veterinaria San Jose,"Manuel Payno   Col. Reforma, Juarez, Chihuahua",Servicios veterinarios para mascotas ,31.71543921,-106.4573837
219,Veterinaria San Lorenzo,"L. De Tamiahua 220 4 Col. Mexico, Juarez, Chihuahua",Servicios veterinarios para mascotas ,31.74043486,-106.4243622
220,Veterinaria Sanders,"Sanders 420  Col. Santa Rosa, Juarez, Chihuahua",Servicios veterinarios para mascotas ,31.71851108,-106.4715623
221,Veterinaria Santa Fe,"Carlos Villarreal 1077  Col. Partido Romero, Juarez, Chihuahua",Servicios veterinarios para mascotas ,31.74053239,-106.4737785
222,Veterinaria Santa Fe,"Valle Del Sol 3047  Col. Valle Del Sol, Juarez, Chihuahua",Servicios veterinarios para mascotas ,31.73907897,-106.4057992
223,Veterinaria Santa Maria,"Hacienda Del Porvenir 1302  Col. Hacienda De Las Torres Universidad, Juarez, Chihuahua",Servicios veterinarios para mascotas ,31.59436135,-106.3879382
224,Veterinaria Santa Rosa,"Sevilla 4310  Col. Santa Rosa, Juarez, Chihuahua",Servicios veterinarios para mascotas ,31.71692539,-106.4718451
225,Veterinaria Sarabia,"Francisco Sarabia   Col. Centro, Juarez, Chihuahua",Servicios veterinarios para mascotas ,31.73206978,-106.4885371
226,Veterinaria Satelite,"Manuel Gomez Morin 9906  Col. Partido Senecu, Juarez, Chihuahua",Servicios veterinarios para mascotas ,31.6942025,-106.3869775
227,Veterinaria Sega,"Zaragoza 1206  Col. 0Asis Revolucion, Juarez, Chihuahua",Servicios veterinarios para mascotas ,31.66032126,-106.4522076
228,Veterinaria Senecu,"Manuel Gomez Morin 9050  Col. Senecu, Juarez, Chihuahua",Servicios veterinarios para mascotas ,31.70064012,-106.3977645
229,Veterinaria Sin Nombre,"Sorichi 7804  Col. Roma, Juarez, Chihuahua",Servicios veterinarios para mascotas ,31.63517602,-106.3966377
230,Veterinaria Springfield Animal Health,"Ignacio Allende 277  Col. Morelos, Juarez, Chihuahua",Servicios veterinarios para mascotas ,31.63745832,-106.3605206
231,Veterinaria Super Can,"Uganda 7332  Col. Oasis Oriente, Juarez, Chihuahua",Servicios veterinarios para mascotas ,31.65501645,-106.4219746
232,Veterinaria Topogigio,"Del Granjero 7804  Col. Oasis, Juarez, Chihuahua",Servicios veterinarios para mascotas ,31.65727008,-106.415181
233,Veterinaria Torres Sol,"Ramon Rayon 9951  Col. Pradera De Los Alamos, Juarez, Chihuahua",Servicios veterinarios para mascotas ,31.62199013,-106.400424
234,Veterinaria Tres Animalitos,"Marcos M. Flores 916  Col. Municipio Libre, Juarez, Chihuahua",Servicios veterinarios para mascotas ,31.60161158,-106.3874666
235,Veterinaria Vet And Grooming,"Zaragoza 6751  Col. Nuevo Hipodromo, Juarez, Chihuahua",Servicios veterinarios para mascotas ,31.65980251,-106.4454162
236,Veterinaria Vet Pet,"Canarios 3238  Col. Paseo Del Sol, Juarez, Chihuahua",Servicios veterinarios para mascotas ,31.69872552,-106.4284166
237,Veterinaria Vida Animal,"La Luz 960  Col. Jardines Del Valle, Juarez, Chihuahua",Servicios veterinarios para mascotas ,31.66287841,-106.3690709
238,Veterinaria Villas De Salvarcar,"Villa Verde 2315  Col. Villas De Salvacar, Juarez, Chihuahua",Servicios veterinarios para mascotas ,31.61619611,-106.3900254
239,Veterinaria Vival,"Francisco Tzitza 2255  Col. Fray Garcia De San Francisco, Juarez, Chihuahua",Servicios veterinarios para mascotas ,31.60368746,-106.3643659
240,Veterinaria Waterfill,"Waterfill 209  Col. Rincon De Waterfill, Juarez, Chihuahua",Servicios veterinarios para mascotas ,31.6683032,-106.3517494
241,Veterinaria Y Estetica Canina Grecia,"Grecia 0  Col. Linda Vista, Juarez, Chihuahua",Servicios veterinarios para mascotas ,31.70495593,-106.4742776
242,Veterinaria Y Mascotas Del Centro,"Abraham Gonzalez 155  Col. Zona Centro, Juarez, Chihuahua",Comercio al por menor de mascotas,31.74022934,-106.4846583
243,Veterinaria Zaragoza,"Ejido San Valentin 666  Col. Morelos 1, Juarez, Chihuahua",Servicios veterinarios para mascotas ,31.64194808,-106.369379
244,Vetrinaria Waterfil,"Waterfill 209  Col. Waterfill Rio Bravo, Juarez, Chihuahua",Servicios veterinarios para mascotas ,31.66852532,-106.3524319
245,Zoe Clinica Veterinaria Y Estetica,"Vicente Guerrero 4837  Col. Del Colegio, Juarez, Chihuahua",Servicios veterinarios para mascotas ,31.73359016,-106.4432122
246,Veterinaria Del Ángel,"Av. Ejército Nacional 6905, Partido Iglesias, 32536 Cd Juarez, Chih., Mexico",,31.7064747,-106.4236297
247,Vet&Grooming,"Segunda De Querétaro 6535-1, Lomas De San José, 32680 Cd Juarez, Chih., Mexico",,31.6601213,-106.4293481
248,Grupo Bemasa,"Av. Tecnologico 3087, Tecnologico, 32538 Cd Juarez, Chih., Mexico",Servicios veterinarios para mascotas ,31.6993913,-106.4252619
249,Distribuidora Loya,"C. Jiquilpan 7853, Eréndira, 32662 Cd Juarez, Chih., Mexico","Comercio al por mayor de medicamentos veterinarios y alimentos para animales, servicios veterinarios para mascotas",31.6723393,-106.4100511
250,Jiménez Contreras Silvia,"Rancho El 24 3020, Pradera Dorada, 32618 Cd Juarez, Chih., Mexico",Servicios veterinarios para mascotas ,31.7007001,-106.4225907
251,Paso Del Norte Clínica Veterinaria,"C. Nayarit #6814, Ampliacion Aeropuerto, 32390 Cd Juarez, Chih., Mexico",Servicios veterinarios para mascotas ,31.6643981,-106.4268876
252,Veterinaria Penny-Pets,"C. Malvavisco 7826, Prados Santa Anita, 32600 Cd Juarez, Chih., Mexico",Servicios veterinarios para mascotas ,31.6704589,-106.4073389
253,Vet Samaniego,"Cardenal 6426, Del Márquez, 32607 Cd Juarez, Chih., Mexico",Servicios veterinarios para mascotas ,31.7027476,-106.4302331
254,Pet Home,"Floresta De San José, 32534 Cd Juarez, Chih., Mexico",Servicios veterinarios para mascotas ,31.6989136,-106.4089836
255,Pet'S World,"Av. Ejército Nacional, Pradera Dorada, Floresta De San José, 32618 Cd Juarez, Chih., Mexico",Servicios veterinarios para mascotas ,31.7017592,-106.4134136
256,"""El Ganadero""","Ponciano Arriaga 607, Revolucion Mexicana, 32670 Cd Juarez, Chih., Mexico",Servicios veterinarios para mascotas ,31.676702,-106.448741
257,Farma Pet´S,"Avenida M. J. Clouthier 8427, Eréndira, 32698 Cd Juarez, Chih., Mexico",Servicios veterinarios para mascotas ,31.6676219,-106.4055924
258,Veterinaria,"Av. Ejército Nacional 7226, Pradera Dorada, 32618 Cd Juarez, Chih., Mexico","Comercio al por mayor de medicamentos veterinarios y alimentos para animales, servicios veterinarios",31.7035056,-106.4194799
259,Veterinaria,"Alamillo 3227, Km 5, Cd Juarez, Chih., Mexico",Servicios veterinarios para mascotas ,31.6996915,-106.4431228
260,Samaniego Vet,"Sierra Morena 5549, La Cuesta Ii, Cd Juarez, Chih., Mexico",Servicios veterinarios para mascotas ,31.6736619,-106.4264954
261,Veteridog,"Av. Prof. R. Rivera Lara 7409, Jardines Residencial, Las Acequias, Cd Juarez, Chih., Mexico",Servicios veterinarios para mascotas ,31.6909809,-106.4172972
262,Vetdelreal,"Prolongacion Morelia, Partido Iglesias, 32528 Cd Juarez, Chih., Mexico",Servicios veterinarios para mascotas ,31.6735366,-106.4167473
263,Veterinaria Anubis,"Iztaccíhuatl 5512, Del Real, 32663 Cd Juarez, Chih., Mexico",Servicios veterinarios para mascotas ,31.6733068,-106.4161769
264,Consultorio Veterinario,"C. Sierra De Cordova 5683, La Cuesta Ii, Cd Juarez, Chih., Mexico",Servicios veterinarios para mascotas ,31.6712781,-106.4286842
265,Clinica Veterinaria Samaniego,"C. Sierra De Cordova 5683, La Cuesta, 32650 Cd Juarez, Chih., Mexico",Servicios veterinarios para mascotas ,31.6712565,-106.4287398
266,Veterinaria Penny-Pets,"Calle, Prados Sta Anita 7826, Prados Santa Anita, 32664 Cd Juarez, Chih., Mexico",Servicios veterinarios para mascotas ,31.6759213,-106.4112988
267,Marvet,"32605, Tequisquiapan 234, Santa Teresa, 32605 Cd Juarez, Chih., Mexico",Servicios veterinarios para mascotas ,31.6960539,-106.4297438
268,Minizoo Hospital,"Blvd. Oscar Flores 5553, La Cuesta Ii, 32650 Cd Juarez, Chih., Mexico",Servicios veterinarios para mascotas ,31.674015,-106.439125
